{"type":"FeatureCollection", "features": [
{"type":"Feature","geometry":{"type":"MultiPolygon","coordinates":[[[[-61.324,15.95],[-61.322,15.886],[-61.274,15.866],[-61.204,15.9],[-61.234,15.986],[-61.29,16.004],[-61.324,15.95]]],[[[-61.806,16.268],[-61.784,16.224],[-61.77,16.064],[-61.706,15.948],[-61.62,15.972],[-61.564,16.034],[-61.558,16.092],[-61.608,16.304],[-61.744,16.362],[-61.8,16.316],[-61.806,16.268]]],[[[-61.53,16.218],[-61.466,16.196],[-61.37,16.232],[-61.266,16.25],[-61.26,16.304],[-61.376,16.34],[-61.402,16.376],[-61.412,16.47],[-61.474,16.508],[-61.536,16.454],[-61.526,16.394],[-61.55,16.286],[-61.53,16.218]]]]},"properties":{"code":"971"}},
{"type":"Feature","geometry":{"type":"Polygon","coordinates":[[[-61.118,14.628],[-61.058,14.454],[-60.98,14.482],[-60.912,14.46],[-60.858,14.398],[-60.81,14.48],[-60.914,14.692],[-61.016,14.808],[-61.114,14.87],[-61.206,14.862],[-61.23,14.822],[-61.176,14.742],[-61.184,14.708],[-61.118,14.628]]]},"properties":{"code":"972"}},
{"type":"Feature","geometry":{"type":"Polygon","coordinates":[[[-53.47,5.566],[-53.592,5.608],[-53.722,5.686],[-53.836,5.732],[-53.968,5.746],[-54.012,5.664],[-54.004,5.574],[-54.038,5.51],[-54.208,5.304],[-54.28,5.262],[-54.376,5.108],[-54.416,5.084],[-54.446,4.936],[-54.47,4.89],[-54.46,4.778],[-54.436,4.724],[-54.416,4.606],[-54.45,4.526],[-54.442,4.438],[-54.394,4.366],[-54.382,4.264],[-54.396,4.202],[-54.324,4.136],[-54.358,4.05],[-54.318,4.014],[-54.282,3.926],[-54.198,3.806],[-54.13,3.8],[-54.08,3.706],[-54.082,3.674],[-53.98,3.608],[-54.01,3.536],[-54.012,3.428],[-54.06,3.378],[-54.064,3.316],[-54.136,3.266],[-54.214,3.15],[-54.174,3.106],[-54.182,2.864],[-54.222,2.754],[-54.264,2.724],[-54.348,2.524],[-54.42,2.436],[-54.476,2.436],[-54.534,2.292],[-54.478,2.216],[-54.398,2.198],[-54.344,2.16],[-54.224,2.15],[-54.112,2.118],[-54.066,2.196],[-54.016,2.182],[-53.944,2.216],[-53.942,2.26],[-53.766,2.376],[-53.666,2.302],[-53.546,2.252],[-53.45,2.26],[-53.372,2.314],[-53.308,2.314],[-53.226,2.264],[-53.224,2.202],[-53.134,2.226],[-53.074,2.218],[-52.988,2.168],[-52.902,2.198],[-52.842,2.292],[-52.66,2.374],[-52.618,2.476],[-52.566,2.516],[-52.528,2.582],[-52.53,2.652],[-52.474,2.794],[-52.396,2.928],[-52.326,3.078],[-52.352,3.124],[-52.3,3.178],[-52.292,3.226],[-52.234,3.24],[-52.19,3.302],[-52.086,3.49],[-51.994,3.642],[-51.972,3.706],[-51.798,3.886],[-51.782,3.964],[-51.656,4.054],[-51.626,4.196],[-51.676,4.254],[-51.718,4.34],[-51.702,4.39],[-51.752,4.418],[-51.802,4.618],[-51.862,4.672],[-51.916,4.668],[-52.006,4.702],[-52.11,4.784],[-52.23,4.86],[-52.302,4.952],[-52.356,4.918],[-52.538,5.088],[-52.628,5.146],[-52.852,5.374],[-52.954,5.456],[-53.072,5.468],[-53.128,5.506],[-53.27,5.552],[-53.318,5.538],[-53.47,5.566]]]},"properties":{"code":"973"}},
{"type":"Feature","geometry":{"type":"Polygon","coordinates":[[[45.1,-12.802],[45.096,-12.854],[45.146,-12.9],[45.092,-12.966],[45.15,-13],[45.198,-12.896],[45.204,-12.73],[45.13,-12.73],[45.09,-12.672],[45.042,-12.744],[45.1,-12.802]]]},"properties":{"code":"976"}},
{"type":"Feature","geometry":{"type":"Polygon","coordinates":[[[4.78,46.176],[4.748,46.092],[4.754,45.972],[4.88,45.898],[4.924,45.804],[5.102,45.814],[5.192,45.772],[5.266,45.79],[5.352,45.884],[5.546,45.714],[5.624,45.614],[5.69,45.648],[5.702,45.702],[5.784,45.744],[5.832,45.938],[5.81,45.99],[5.832,46.106],[5.956,46.132],[6.034,46.238],[6.17,46.366],[6.064,46.416],[5.91,46.284],[5.854,46.262],[5.726,46.26],[5.65,46.34],[5.542,46.27],[5.374,46.352],[5.31,46.446],[5.226,46.468],[5.172,46.514],[5.056,46.484],[4.936,46.514],[4.78,46.176]]]},"properties":{"code":"01"}},
{"type":"Feature","geometry":{"type":"Polygon","coordinates":[[[3.172,50.012],[3.204,49.984],[3.08,49.866],[3.118,49.706],[3.094,49.622],[3.138,49.574],[3.074,49.348],[2.974,49.326],[3.108,49.144],[3.072,49.118],[3.166,49.1],[3.162,49.024],[3.304,48.948],[3.33,48.908],[3.486,48.852],[3.528,48.912],[3.622,48.966],[3.664,49.038],[3.612,49.118],[3.704,49.182],[3.644,49.312],[3.802,49.358],[3.87,49.406],[4.036,49.36],[4.048,49.406],[4.04,49.508],[4.078,49.524],[4.026,49.622],[4.126,49.652],[4.246,49.754],[4.214,49.806],[4.256,49.904],[4.234,49.958],[4.14,49.978],[4.012,49.986],[3.954,50.03],[3.716,50.07],[3.614,50.026],[3.49,50.018],[3.352,50.036],[3.172,50.012]]]},"properties":{"code":"02"}},
{"type":"Feature","geometry":{"type":"Polygon","coordinates":[[[3.032,46.794],[2.96,46.804],[2.786,46.722],[2.704,46.74],[2.576,46.612],[2.614,46.554],[2.536,46.52],[2.368,46.518],[2.282,46.42],[2.336,46.324],[2.392,46.33],[2.476,46.28],[2.566,46.144],[2.654,46.124],[2.674,46.172],[2.786,46.198],[2.856,46.256],[2.938,46.242],[2.912,46.178],[3.022,46.102],[3.128,46.07],[3.214,46.074],[3.362,46.052],[3.454,46.064],[3.482,46.014],[3.592,46.024],[3.632,45.962],[3.694,45.93],[3.824,45.988],[3.796,46.112],[3.806,46.256],[3.9,46.276],[3.984,46.318],[3.998,46.464],[3.958,46.49],[3.742,46.54],[3.732,46.604],[3.638,46.708],[3.63,46.75],[3.482,46.65],[3.418,46.71],[3.204,46.678],[3.05,46.758],[3.032,46.794]]]},"properties":{"code":"03"}},
{"type":"Feature","geometry":{"type":"Polygon","coordinates":[[[5.676,44.192],[5.576,44.188],[5.498,44.116],[5.544,44.026],[5.508,43.958],[5.598,43.902],[5.574,43.83],[5.654,43.826],[5.758,43.73],[5.94,43.728],[6.036,43.694],[6.21,43.796],[6.384,43.734],[6.424,43.79],[6.524,43.806],[6.636,43.788],[6.694,43.876],[6.748,43.872],[6.848,43.954],[6.746,44.042],[6.756,44.078],[6.688,44.17],[6.724,44.25],[6.796,44.316],[6.888,44.362],[6.892,44.42],[6.858,44.534],[6.932,44.572],[6.948,44.654],[6.766,44.586],[6.684,44.532],[6.632,44.446],[6.468,44.452],[6.358,44.522],[6.238,44.454],[6.072,44.45],[5.954,44.396],[5.882,44.212],[5.676,44.192]]]},"properties":{"code":"04"}},
{"type":"Feature","geometry":{"type":"Polygon","coordinates":[[[6.26,45.126],[6.204,45.012],[6.306,45.004],[6.358,44.942],[6.354,44.854],[6.132,44.864],[5.95,44.804],[5.92,44.752],[5.85,44.75],[5.802,44.706],[5.79,44.654],[5.652,44.656],[5.604,44.466],[5.48,44.492],[5.434,44.434],[5.438,44.368],[5.494,44.338],[5.618,44.332],[5.676,44.276],[5.676,44.192],[5.882,44.212],[5.954,44.396],[6.072,44.45],[6.238,44.454],[6.358,44.522],[6.468,44.452],[6.632,44.446],[6.684,44.532],[6.766,44.586],[6.948,44.654],[6.988,44.69],[7.078,44.68],[7,44.788],[7.006,44.84],[6.864,44.85],[6.748,44.922],[6.744,45.016],[6.674,45.02],[6.63,45.11],[6.576,45.124],[6.396,45.062],[6.338,45.12],[6.26,45.126]]]},"properties":{"code":"05"}},
{"type":"Feature","geometry":{"type":"Polygon","coordinates":[[[6.888,44.362],[6.796,44.316],[6.724,44.25],[6.688,44.17],[6.756,44.078],[6.746,44.042],[6.848,43.954],[6.748,43.872],[6.694,43.876],[6.636,43.788],[6.758,43.734],[6.802,43.626],[6.908,43.6],[6.884,43.504],[6.934,43.48],[6.972,43.546],[7.04,43.542],[7.168,43.658],[7.53,43.788],[7.496,43.864],[7.566,43.944],[7.67,43.998],[7.716,44.082],[7.62,44.15],[7.358,44.116],[7.07,44.232],[7.008,44.236],[6.922,44.35],[6.888,44.362]]]},"properties":{"code":"06"}},
{"type":"Feature","geometry":{"type":"Polygon","coordinates":[[[8.574,42.382],[8.688,42.262],[8.54,42.234],[8.586,42.152],[8.69,42.116],[8.742,42.04],[8.658,42.01],[8.622,41.928],[8.802,41.89],[8.728,41.774],[8.882,41.67],[8.792,41.628],[8.778,41.59],[8.94,41.49],[9.106,41.43],[9.22,41.368],[9.244,41.446],[9.4,41.692],[9.402,41.858],[9.326,41.834],[9.228,41.856],[9.222,42.028],[9.162,42.024],[9.046,42.206],[8.904,42.254],[8.86,42.3],[8.758,42.338],[8.574,42.382]]]},"properties":{"code":"2A"}},
{"type":"Feature","geometry":{"type":"Polygon","coordinates":[[[9.402,41.858],[9.414,41.956],[9.55,42.104],[9.56,42.282],[9.532,42.384],[9.542,42.46],[9.516,42.584],[9.446,42.674],[9.492,42.794],[9.47,42.936],[9.44,43.002],[9.344,42.998],[9.354,42.916],[9.31,42.834],[9.346,42.744],[9.284,42.676],[9.222,42.736],[9.124,42.732],[9.01,42.64],[8.802,42.602],[8.666,42.512],[8.656,42.416],[8.574,42.382],[8.758,42.338],[8.86,42.3],[8.904,42.254],[9.046,42.206],[9.162,42.024],[9.222,42.028],[9.228,41.856],[9.326,41.834],[9.402,41.858]]]},"properties":{"code":"2B"}},
{"type":"Feature","geometry":{"type":"Polygon","coordinates":[[[4.484,45.236],[4.444,45.14],[4.374,45.144],[4.36,45.056],[4.31,45.03],[4.158,44.874],[4.03,44.87],[3.988,44.816],[3.862,44.744],[3.894,44.616],[3.948,44.572],[3.998,44.46],[4.094,44.334],[4.258,44.264],[4.336,44.34],[4.504,44.34],[4.65,44.27],[4.65,44.33],[4.668,44.43],[4.698,44.452],[4.694,44.562],[4.78,44.654],[4.76,44.772],[4.822,44.818],[4.886,44.934],[4.838,45.004],[4.8,45.298],[4.756,45.366],[4.68,45.346],[4.598,45.29],[4.606,45.254],[4.484,45.236]]]},"properties":{"code":"07"}},
{"type":"Feature","geometry":{"type":"Polygon","coordinates":[[[4.234,49.958],[4.256,49.904],[4.214,49.806],[4.246,49.754],[4.126,49.652],[4.026,49.622],[4.078,49.524],[4.04,49.508],[4.048,49.406],[4.19,49.398],[4.422,49.28],[4.576,49.296],[4.634,49.232],[4.95,49.236],[5.056,49.294],[5.108,49.448],[5.062,49.508],[5.162,49.562],[5.312,49.56],[5.394,49.618],[5.27,49.696],[5.166,49.692],[5.072,49.762],[4.958,49.802],[4.86,49.798],[4.89,49.91],[4.79,49.958],[4.842,50.044],[4.824,50.16],[4.702,50.096],[4.688,50],[4.446,49.938],[4.308,49.97],[4.234,49.958]]]},"properties":{"code":"08"}},
{"type":"Feature","geometry":{"type":"Polygon","coordinates":[[[1.688,43.274],[1.638,43.256],[1.546,43.278],[1.47,43.21],[1.358,43.312],[1.32,43.19],[1.228,43.184],[1.01,43.112],[0.982,43.074],[0.98,42.974],[0.874,42.958],[0.826,42.914],[0.858,42.826],[0.926,42.79],[1.074,42.782],[1.166,42.708],[1.358,42.72],[1.468,42.63],[1.55,42.656],[1.68,42.624],[1.786,42.574],[1.972,42.616],[2.028,42.652],[2.166,42.664],[2.056,42.756],[1.948,42.738],[1.876,42.852],[1.986,42.872],[1.986,43.032],[1.95,43.122],[1.782,43.156],[1.714,43.186],[1.688,43.274]]]},"properties":{"code":"09"}},
{"type":"Feature","geometry":{"type":"Polygon","coordinates":[[[3.414,48.39],[3.498,48.37],[3.616,48.272],[3.668,48.14],[3.78,48.12],[3.824,48.042],[3.902,47.996],[3.926,47.934],[4.11,47.926],[4.166,47.96],[4.294,47.926],[4.344,47.956],[4.554,47.968],[4.578,48.03],[4.704,48.02],[4.732,48.118],[4.82,48.104],[4.864,48.2],[4.824,48.344],[4.7,48.396],[4.636,48.456],[4.67,48.532],[4.532,48.53],[4.398,48.564],[4.314,48.616],[4.328,48.696],[4.178,48.708],[4.002,48.664],[3.95,48.604],[3.798,48.526],[3.634,48.54],[3.556,48.62],[3.414,48.534],[3.388,48.478],[3.414,48.39]]]},"properties":{"code":"10"}},
{"type":"Feature","geometry":{"type":"Polygon","coordinates":[[[1.688,43.274],[1.714,43.186],[1.782,43.156],[1.95,43.122],[1.986,43.032],[1.986,42.872],[1.876,42.852],[1.948,42.738],[2.056,42.756],[2.166,42.664],[2.358,42.73],[2.328,42.838],[2.502,42.85],[2.738,42.836],[2.79,42.896],[2.866,42.918],[3.044,42.838],[3.04,42.93],[3.064,43.02],[3.118,43.102],[3.24,43.212],[3.176,43.244],[3.004,43.286],[2.886,43.33],[2.812,43.324],[2.752,43.254],[2.674,43.302],[2.618,43.288],[2.548,43.338],[2.566,43.422],[2.428,43.436],[2.402,43.418],[2.244,43.448],[2.074,43.394],[2.03,43.436],[1.914,43.4],[1.858,43.444],[1.804,43.358],[1.724,43.33],[1.688,43.274]]]},"properties":{"code":"11"}},
{"type":"Feature","geometry":{"type":"Polygon","coordinates":[[[2.208,44.616],[2.148,44.57],[2.082,44.588],[1.988,44.552],[1.846,44.448],[1.908,44.364],[1.882,44.34],[1.902,44.192],[1.99,44.15],[2.106,44.194],[2.284,44.146],[2.46,44.052],[2.578,43.88],[2.562,43.844],[2.67,43.75],[2.738,43.73],[2.814,43.762],[2.912,43.74],[2.936,43.694],[3.054,43.714],[3.064,43.836],[3.208,43.812],[3.276,43.898],[3.358,43.914],[3.378,43.966],[3.44,43.998],[3.322,44.11],[3.374,44.17],[3.358,44.198],[3.212,44.196],[3.16,44.246],[3.12,44.362],[3.136,44.454],[3.068,44.502],[3.084,44.56],[2.982,44.644],[2.852,44.872],[2.776,44.888],[2.74,44.94],[2.602,44.844],[2.6,44.794],[2.484,44.65],[2.354,44.64],[2.234,44.656],[2.208,44.616]]]},"properties":{"code":"12"}},
{"type":"Feature","geometry":{"type":"Polygon","coordinates":[[[4.74,43.924],[4.642,43.868],[4.652,43.782],[4.594,43.688],[4.488,43.7],[4.4,43.56],[4.24,43.5],[4.23,43.46],[4.548,43.448],[4.586,43.36],[4.758,43.35],[4.838,43.33],[4.866,43.404],[4.968,43.426],[5.024,43.34],[5.224,43.328],[5.308,43.362],[5.358,43.326],[5.368,43.208],[5.53,43.21],[5.598,43.164],[5.672,43.18],[5.684,43.236],[5.76,43.268],[5.686,43.34],[5.702,43.64],[5.798,43.66],[5.754,43.724],[5.606,43.658],[5.438,43.682],[5.318,43.736],[5.188,43.736],[5.05,43.788],[4.976,43.866],[4.854,43.912],[4.74,43.924]],[[5.118,43.514],[5.138,43.4],[5.058,43.408],[5.014,43.524],[5.118,43.514]]]},"properties":{"code":"13"}},
{"type":"Feature","geometry":{"type":"Polygon","coordinates":[[[-1.12,49.356],[-1.136,49.272],[-0.924,49.166],[-0.876,49.112],[-0.862,49.034],[-1.114,48.862],[-1.096,48.786],[-0.84,48.752],[-0.624,48.828],[-0.406,48.87],[-0.26,48.854],[-0.152,48.82],[0.056,48.902],[0.278,48.966],[0.412,48.95],[0.432,48.968],[0.394,49.208],[0.338,49.23],[0.298,49.43],[0.112,49.396],[0,49.326],[-0.226,49.282],[-0.414,49.336],[-0.598,49.34],[-0.844,49.36],[-0.924,49.392],[-1.07,49.39],[-1.12,49.356]]]},"properties":{"code":"14"}},
{"type":"Feature","geometry":{"type":"Polygon","coordinates":[[[2.508,45.478],[2.486,45.378],[2.398,45.4],[2.352,45.328],[2.272,45.29],[2.196,45.22],[2.208,45.144],[2.096,45.056],[2.142,45],[2.062,44.976],[2.09,44.876],[2.172,44.79],[2.146,44.72],[2.208,44.616],[2.234,44.656],[2.354,44.64],[2.484,44.65],[2.6,44.794],[2.602,44.844],[2.74,44.94],[2.776,44.888],[2.852,44.872],[2.982,44.644],[3.046,44.798],[3.104,44.884],[3.182,44.864],[3.362,44.972],[3.3,45.032],[3.326,45.096],[3.264,45.16],[3.212,45.282],[3.112,45.284],[3.104,45.354],[3.044,45.298],[2.934,45.326],[2.92,45.366],[2.822,45.4],[2.712,45.382],[2.67,45.438],[2.508,45.478]]]},"properties":{"code":"15"}},
{"type":"Feature","geometry":{"type":"Polygon","coordinates":[[[-0.102,45.97],[-0.13,45.928],[-0.148,45.79],[-0.402,45.786],[-0.42,45.704],[-0.394,45.622],[-0.256,45.522],[-0.248,45.434],[-0.288,45.33],[-0.158,45.306],[-0.112,45.248],[0.004,45.228],[0.004,45.192],[0.054,45.226],[0.13,45.208],[0.27,45.304],[0.248,45.37],[0.274,45.426],[0.432,45.5],[0.506,45.554],[0.504,45.612],[0.576,45.64],[0.63,45.714],[0.708,45.796],[0.8,45.836],[0.828,45.882],[0.944,45.97],[0.926,46.012],[0.814,46.054],[0.824,46.128],[0.744,46.14],[0.688,46.098],[0.544,46.088],[0.47,46.062],[0.272,46.062],[0.198,46.096],[0.078,46.094],[-0.032,46.056],[-0.044,45.99],[-0.102,45.97]]]},"properties":{"code":"16"}},
{"type":"Feature","geometry":{"type":"MultiPolygon","coordinates":[[[[-1.13,46.31],[-1.112,46.262],[-1.224,46.166],[-1.1,46.094],[-1.052,46.012],[-1.132,45.804],[-1.242,45.782],[-1.238,45.706],[-0.994,45.598],[-1.026,45.574],[-0.842,45.436],[-0.752,45.322],[-0.594,45.322],[-0.426,45.278],[-0.418,45.204],[-0.276,45.142],[-0.246,45.108],[-0.142,45.09],[-0.04,45.102],[0.004,45.192],[0.004,45.228],[-0.112,45.248],[-0.158,45.306],[-0.288,45.33],[-0.248,45.434],[-0.256,45.522],[-0.394,45.622],[-0.42,45.704],[-0.402,45.786],[-0.148,45.79],[-0.13,45.928],[-0.102,45.97],[-0.28,46.078],[-0.512,46.11],[-0.628,46.142],[-0.69,46.22],[-0.752,46.246],[-0.75,46.304],[-0.808,46.34],[-0.918,46.312],[-1.014,46.356],[-1.13,46.31]]],[[[-1.25,45.846],[-1.188,45.886],[-1.246,45.99],[-1.388,45.998],[-1.388,45.958],[-1.294,45.9],[-1.25,45.846]]]]},"properties":{"code":"17"}},
{"type":"Feature","geometry":{"type":"Polygon","coordinates":[[[2.24,47.62],[2.12,47.582],[2.248,47.492],[2.104,47.392],[2.158,47.298],[1.998,47.264],[1.942,47.29],[1.84,47.22],[1.78,47.13],[1.882,47.102],[1.966,47.126],[2.054,47.104],[2.094,47.016],[2.07,46.934],[2.154,46.912],[2.076,46.838],[2.116,46.776],[2.09,46.712],[2.19,46.642],[2.158,46.558],[2.204,46.484],[2.168,46.424],[2.282,46.42],[2.368,46.518],[2.536,46.52],[2.614,46.554],[2.576,46.612],[2.704,46.74],[2.786,46.722],[2.96,46.804],[3.032,46.794],[3.076,47.03],[3.024,47.062],[3.02,47.154],[2.984,47.26],[2.87,47.34],[2.932,47.44],[2.874,47.52],[2.768,47.526],[2.684,47.482],[2.594,47.558],[2.508,47.568],[2.438,47.61],[2.372,47.586],[2.24,47.62]]]},"properties":{"code":"18"}},
{"type":"Feature","geometry":{"type":"Polygon","coordinates":[[[1.898,45.698],[1.708,45.642],[1.582,45.554],[1.452,45.554],[1.35,45.47],[1.254,45.444],[1.326,45.38],[1.242,45.3],[1.256,45.158],[1.412,45.126],[1.4,45.062],[1.448,45.02],[1.54,45.046],[1.648,45.028],[1.824,44.928],[1.914,44.978],[2.062,44.976],[2.142,45],[2.096,45.056],[2.208,45.144],[2.196,45.22],[2.272,45.29],[2.352,45.328],[2.398,45.4],[2.486,45.378],[2.508,45.478],[2.514,45.554],[2.462,45.596],[2.528,45.682],[2.492,45.738],[2.436,45.7],[2.364,45.712],[2.32,45.668],[2.114,45.724],[2.046,45.764],[1.898,45.698]]]},"properties":{"code":"19"}},
{"type":"Feature","geometry":{"type":"Polygon","coordinates":[[[4.294,47.926],[4.26,47.876],[4.32,47.836],[4.332,47.756],[4.256,47.706],[4.172,47.55],[4.116,47.512],[4.124,47.45],[4.066,47.402],[4.106,47.34],[4.114,47.282],[4.232,47.198],[4.21,47.156],[4.342,47.102],[4.4,47.054],[4.556,47],[4.59,46.956],[4.78,46.918],[4.894,46.966],[5.05,46.982],[5.108,46.958],[5.256,46.98],[5.284,47.048],[5.386,47.082],[5.48,47.218],[5.518,47.304],[5.494,47.376],[5.434,47.394],[5.4,47.5],[5.498,47.554],[5.478,47.608],[5.374,47.604],[5.086,47.656],[5.014,47.706],[4.954,47.702],[4.982,47.8],[4.954,47.866],[4.79,48.008],[4.704,48.02],[4.578,48.03],[4.554,47.968],[4.344,47.956],[4.294,47.926]]]},"properties":{"code":"21"}},
{"type":"Feature","geometry":{"type":"Polygon","coordinates":[[[-2.124,48.604],[-2.214,48.592],[-2.286,48.668],[-2.468,48.65],[-2.642,48.524],[-2.824,48.598],[-2.828,48.656],[-3.016,48.768],[-3.112,48.868],[-3.202,48.834],[-3.39,48.816],[-3.542,48.822],[-3.584,48.77],[-3.568,48.682],[-3.66,48.66],[-3.64,48.596],[-3.548,48.532],[-3.604,48.496],[-3.55,48.448],[-3.606,48.386],[-3.524,48.258],[-3.564,48.186],[-3.344,48.17],[-3.274,48.142],[-3.13,48.2],[-3.038,48.204],[-2.65,48.1],[-2.628,48.034],[-2.514,48.132],[-2.418,48.172],[-2.288,48.134],[-2.228,48.166],[-2.186,48.248],[-2.074,48.284],[-1.958,48.298],[-1.912,48.506],[-1.948,48.538],[-2.006,48.566],[-2.124,48.604]]]},"properties":{"code":"22"}},
{"type":"Feature","geometry":{"type":"Polygon","coordinates":[[[2.168,46.424],[1.828,46.428],[1.728,46.39],[1.596,46.408],[1.5,46.398],[1.416,46.348],[1.446,46.334],[1.372,46.216],[1.446,46.18],[1.566,45.964],[1.63,45.932],[1.676,45.836],[1.776,45.832],[1.88,45.798],[1.898,45.698],[2.046,45.764],[2.114,45.724],[2.32,45.668],[2.364,45.712],[2.436,45.7],[2.492,45.738],[2.388,45.828],[2.492,45.864],[2.594,45.99],[2.548,46.112],[2.566,46.144],[2.476,46.28],[2.392,46.33],[2.336,46.324],[2.282,46.42],[2.168,46.424]]]},"properties":{"code":"23"}},
{"type":"Feature","geometry":{"type":"Polygon","coordinates":[[[0.63,45.714],[0.576,45.64],[0.504,45.612],[0.506,45.554],[0.432,45.5],[0.274,45.426],[0.248,45.37],[0.27,45.304],[0.13,45.208],[0.054,45.226],[0.004,45.192],[-0.04,45.102],[0.044,45.116],[0.072,45.068],[0.004,44.948],[0.034,44.916],[-0.012,44.858],[0.046,44.824],[0.192,44.82],[0.256,44.868],[0.298,44.762],[0.348,44.72],[0.356,44.654],[0.54,44.666],[0.586,44.7],[0.73,44.676],[0.798,44.702],[0.848,44.666],[0.858,44.598],[0.98,44.644],[1.076,44.578],[1.298,44.726],[1.302,44.798],[1.44,44.874],[1.41,45.006],[1.448,45.02],[1.4,45.062],[1.412,45.126],[1.256,45.158],[1.242,45.3],[1.326,45.38],[1.254,45.444],[1.16,45.478],[1.168,45.524],[1.08,45.536],[1.024,45.61],[0.94,45.612],[0.842,45.582],[0.752,45.616],[0.776,45.668],[0.63,45.714]]]},"properties":{"code":"24"}},
{"type":"Feature","geometry":{"type":"Polygon","coordinates":[[[6.808,47.562],[6.67,47.558],[6.574,47.496],[6.412,47.522],[6.336,47.506],[6.256,47.424],[6.2,47.43],[6.08,47.354],[5.926,47.344],[5.838,47.3],[5.698,47.266],[5.72,47.22],[5.824,47.142],[5.768,47.09],[5.788,47.02],[5.968,46.98],[5.956,46.948],[6.032,46.87],[6.152,46.82],[6.208,46.764],[6.07,46.69],[6.106,46.65],[6.048,46.608],[6.138,46.558],[6.11,46.576],[6.282,46.69],[6.44,46.762],[6.464,46.89],[6.432,46.928],[6.496,46.974],[6.64,47.002],[6.712,47.048],[6.74,47.108],[6.858,47.164],[6.956,47.244],[7.048,47.362],[6.878,47.358],[6.94,47.434],[6.902,47.55],[6.808,47.562]]]},"properties":{"code":"25"}},
{"type":"Feature","geometry":{"type":"Polygon","coordinates":[[[4.8,45.298],[4.838,45.004],[4.886,44.934],[4.822,44.818],[4.76,44.772],[4.78,44.654],[4.694,44.562],[4.698,44.452],[4.668,44.43],[4.65,44.33],[4.78,44.32],[4.814,44.232],[5.06,44.308],[5.15,44.236],[5.252,44.232],[5.384,44.202],[5.382,44.16],[5.498,44.116],[5.576,44.188],[5.676,44.192],[5.676,44.276],[5.618,44.332],[5.494,44.338],[5.438,44.368],[5.434,44.434],[5.48,44.492],[5.604,44.466],[5.652,44.656],[5.79,44.654],[5.802,44.706],[5.636,44.732],[5.464,44.792],[5.494,44.996],[5.466,45.044],[5.386,45.034],[5.244,45.06],[5.188,45.12],[5.184,45.232],[5.112,45.288],[4.988,45.344],[4.88,45.296],[4.8,45.298]],[[4.892,44.364],[4.988,44.424],[5.072,44.378],[4.98,44.298],[4.89,44.306],[4.892,44.364]]]},"properties":{"code":"26"}},
{"type":"Feature","geometry":{"type":"Polygon","coordinates":[[[0.298,49.43],[0.338,49.23],[0.394,49.208],[0.432,48.968],[0.412,48.95],[0.422,48.886],[0.59,48.872],[0.608,48.832],[0.732,48.786],[0.814,48.67],[0.962,48.726],[1.162,48.77],[1.296,48.768],[1.406,48.862],[1.46,48.872],[1.502,48.942],[1.446,49.046],[1.608,49.078],[1.704,49.232],[1.79,49.254],[1.76,49.366],[1.714,49.41],[1.576,49.44],[1.4,49.456],[1.31,49.428],[1.272,49.346],[1.16,49.342],[0.992,49.254],[0.928,49.314],[0.918,49.386],[0.798,49.418],[0.664,49.402],[0.524,49.478],[0.338,49.44],[0.298,49.43]]]},"properties":{"code":"27"}},
{"type":"Feature","geometry":{"type":"Polygon","coordinates":[[[0.814,48.67],[0.85,48.584],[0.966,48.522],[0.944,48.4],[0.768,48.314],[0.83,48.214],[0.798,48.194],[0.842,48.104],[1.014,48.132],[1.026,48.088],[1.112,48.08],[1.122,48.036],[1.308,47.954],[1.52,47.982],[1.656,48.076],[1.756,48.064],[1.884,48.098],[1.964,48.174],[1.994,48.286],[1.986,48.362],[1.922,48.458],[1.872,48.44],[1.786,48.49],[1.788,48.554],[1.702,48.586],[1.576,48.702],[1.626,48.748],[1.538,48.922],[1.502,48.942],[1.46,48.872],[1.406,48.862],[1.296,48.768],[1.162,48.77],[0.962,48.726],[0.814,48.67]]]},"properties":{"code":"28"}},
{"type":"Feature","geometry":{"type":"Polygon","coordinates":[[[-3.66,48.66],[-3.734,48.708],[-3.95,48.652],[-3.966,48.722],[-4.18,48.684],[-4.238,48.65],[-4.35,48.676],[-4.476,48.624],[-4.558,48.624],[-4.612,48.572],[-4.746,48.546],[-4.796,48.414],[-4.722,48.33],[-4.628,48.338],[-4.502,48.378],[-4.404,48.324],[-4.41,48.276],[-4.552,48.294],[-4.564,48.232],[-4.448,48.236],[-4.302,48.194],[-4.27,48.134],[-4.362,48.11],[-4.714,48.06],[-4.698,48.026],[-4.55,48.012],[-4.45,47.982],[-4.392,47.932],[-4.348,47.832],[-4.268,47.79],[-4.176,47.806],[-4.164,47.85],[-3.98,47.854],[-3.84,47.796],[-3.538,47.762],[-3.522,47.85],[-3.404,47.866],[-3.422,47.968],[-3.558,47.994],[-3.64,47.986],[-3.716,48.142],[-3.564,48.186],[-3.524,48.258],[-3.606,48.386],[-3.55,48.448],[-3.604,48.496],[-3.548,48.532],[-3.64,48.596],[-3.66,48.66]]]},"properties":{"code":"29"}},
{"type":"Feature","geometry":{"type":"Polygon","coordinates":[[[3.374,44.17],[3.322,44.11],[3.44,43.998],[3.378,43.966],[3.358,43.914],[3.462,43.872],[3.576,43.866],[3.624,43.916],[3.77,43.968],[3.92,43.882],[4.002,43.812],[4.144,43.734],[4.194,43.654],[4.102,43.554],[4.166,43.472],[4.23,43.46],[4.24,43.5],[4.4,43.56],[4.488,43.7],[4.594,43.688],[4.652,43.782],[4.642,43.868],[4.74,43.924],[4.844,44.01],[4.708,44.104],[4.722,44.188],[4.65,44.27],[4.504,44.34],[4.336,44.34],[4.258,44.264],[4.094,44.334],[3.998,44.46],[3.908,44.376],[3.934,44.276],[3.974,44.254],[3.928,44.162],[3.798,44.128],[3.684,44.18],[3.632,44.122],[3.44,44.13],[3.374,44.17]]]},"properties":{"code":"30"}},
{"type":"Feature","geometry":{"type":"Polygon","coordinates":[[[0.954,43.788],[1.05,43.674],[1.126,43.638],[1.164,43.572],[1.072,43.546],[1,43.414],[0.77,43.416],[0.646,43.312],[0.606,43.31],[0.442,43.132],[0.56,43.068],[0.628,43],[0.554,42.86],[0.478,42.878],[0.454,42.728],[0.478,42.7],[0.668,42.69],[0.66,42.838],[0.708,42.862],[0.858,42.826],[0.826,42.914],[0.874,42.958],[0.98,42.974],[0.982,43.074],[1.01,43.112],[1.228,43.184],[1.32,43.19],[1.358,43.312],[1.47,43.21],[1.546,43.278],[1.638,43.256],[1.688,43.274],[1.724,43.33],[1.804,43.358],[1.858,43.444],[1.914,43.4],[2.03,43.436],[2.008,43.48],[1.884,43.518],[1.84,43.578],[1.688,43.628],[1.73,43.658],[1.65,43.794],[1.59,43.814],[1.556,43.918],[1.492,43.888],[1.348,43.87],[1.36,43.818],[1.222,43.772],[1.158,43.818],[1.11,43.796],[0.954,43.788]]]},"properties":{"code":"31"}},
{"type":"Feature","geometry":{"type":"Polygon","coordinates":[[[0.076,43.984],[0.03,43.9],[-0.046,43.96],[-0.102,43.928],[-0.176,43.936],[-0.194,43.738],[-0.25,43.708],[-0.242,43.584],[-0.096,43.582],[-0.016,43.604],[0.054,43.518],[0.112,43.518],[0.132,43.426],[0.184,43.372],[0.278,43.386],[0.396,43.334],[0.606,43.31],[0.646,43.312],[0.77,43.416],[1,43.414],[1.072,43.546],[1.164,43.572],[1.126,43.638],[1.05,43.674],[0.954,43.788],[0.864,43.924],[0.76,43.944],[0.828,43.996],[0.742,44.066],[0.662,44.024],[0.556,44.054],[0.314,44.006],[0.214,44.022],[0.076,43.984]]]},"properties":{"code":"32"}},
{"type":"Feature","geometry":{"type":"Polygon","coordinates":[[[-1.026,45.574],[-1.062,45.572],[-1.158,45.47],[-1.162,45.3],[-1.208,44.962],[-1.262,44.648],[-1.162,44.774],[-1.052,44.706],[-1.082,44.64],[-1.192,44.66],[-1.258,44.548],[-1.254,44.468],[-1.106,44.502],[-1.086,44.532],[-0.92,44.444],[-0.846,44.418],[-0.778,44.44],[-0.628,44.442],[-0.634,44.4],[-0.384,44.286],[-0.39,44.21],[-0.272,44.194],[-0.14,44.226],[-0.032,44.272],[-0.078,44.354],[-0.004,44.406],[-0.016,44.506],[0.086,44.586],[0.156,44.616],[0.138,44.732],[0.298,44.762],[0.256,44.868],[0.192,44.82],[0.046,44.824],[-0.012,44.858],[0.034,44.916],[0.004,44.948],[0.072,45.068],[0.044,45.116],[-0.04,45.102],[-0.142,45.09],[-0.246,45.108],[-0.276,45.142],[-0.418,45.204],[-0.426,45.278],[-0.594,45.322],[-0.752,45.322],[-0.842,45.436],[-1.026,45.574]]]},"properties":{"code":"33"}},
{"type":"Feature","geometry":{"type":"Polygon","coordinates":[[[3.358,43.914],[3.276,43.898],[3.208,43.812],[3.064,43.836],[3.054,43.714],[2.936,43.694],[2.908,43.654],[2.754,43.614],[2.658,43.65],[2.614,43.6],[2.654,43.466],[2.566,43.422],[2.548,43.338],[2.618,43.288],[2.674,43.302],[2.752,43.254],[2.812,43.324],[2.886,43.33],[3.004,43.286],[3.176,43.244],[3.24,43.212],[3.35,43.274],[3.43,43.29],[3.51,43.272],[3.664,43.394],[3.796,43.442],[3.852,43.486],[4.008,43.552],[4.102,43.554],[4.194,43.654],[4.144,43.734],[4.002,43.812],[3.92,43.882],[3.77,43.968],[3.624,43.916],[3.576,43.866],[3.462,43.872],[3.358,43.914]]]},"properties":{"code":"34"}},
{"type":"Feature","geometry":{"type":"MultiPolygon","coordinates":[[[[-2.124,48.604],[-2.006,48.566],[-2.062,48.64],[-2.124,48.604]]],[[[-1.948,48.538],[-1.912,48.506],[-1.958,48.298],[-2.074,48.284],[-2.186,48.248],[-2.228,48.166],[-2.288,48.134],[-2.24,48],[-2.144,47.984],[-2.078,47.92],[-2.048,47.836],[-2.114,47.77],[-2.098,47.632],[-2.04,47.67],[-1.864,47.706],[-1.67,47.712],[-1.62,47.764],[-1.39,47.828],[-1.246,47.776],[-1.238,47.81],[-1.188,47.868],[-1.156,47.964],[-1.022,47.994],[-1.102,48.266],[-1.046,48.328],[-1.084,48.434],[-1.07,48.508],[-1.272,48.534],[-1.38,48.456],[-1.496,48.506],[-1.572,48.626],[-1.774,48.604],[-1.872,48.648],[-1.85,48.7],[-1.986,48.682],[-2.024,48.638],[-1.948,48.538]]]]},"properties":{"code":"35"}},
{"type":"Feature","geometry":{"type":"Polygon","coordinates":[[[1.326,47.186],[1.366,47.122],[1.254,47.022],[1.174,47.042],[1.056,46.996],[0.982,46.764],[0.868,46.748],[0.914,46.726],[0.894,46.628],[1.022,46.536],[1.146,46.506],[1.178,46.384],[1.304,46.37],[1.356,46.4],[1.416,46.348],[1.5,46.398],[1.596,46.408],[1.728,46.39],[1.828,46.428],[2.168,46.424],[2.204,46.484],[2.158,46.558],[2.19,46.642],[2.09,46.712],[2.116,46.776],[2.076,46.838],[2.154,46.912],[2.07,46.934],[2.094,47.016],[2.054,47.104],[1.966,47.126],[1.882,47.102],[1.78,47.13],[1.84,47.22],[1.716,47.276],[1.592,47.276],[1.422,47.23],[1.326,47.186]]]},"properties":{"code":"36"}},
{"type":"Feature","geometry":{"type":"Polygon","coordinates":[[[0.614,47.694],[0.456,47.638],[0.378,47.568],[0.23,47.608],[0.22,47.502],[0.138,47.336],[0.068,47.248],[0.054,47.164],[0.076,47.124],[0.298,47.054],[0.312,46.938],[0.438,46.93],[0.486,46.954],[0.692,46.974],[0.704,46.904],[0.81,46.828],[0.868,46.748],[0.982,46.764],[1.056,46.996],[1.174,47.042],[1.254,47.022],[1.366,47.122],[1.326,47.186],[1.222,47.294],[1.108,47.298],[1.124,47.354],[1.034,47.608],[0.932,47.628],[0.86,47.68],[0.614,47.694]]]},"properties":{"code":"37"}},
{"type":"Feature","geometry":{"type":"Polygon","coordinates":[[[5.624,45.614],[5.546,45.714],[5.352,45.884],[5.266,45.79],[5.192,45.772],[5.102,45.814],[5.094,45.74],[5.132,45.708],[5.036,45.638],[4.814,45.57],[4.868,45.524],[4.756,45.456],[4.756,45.366],[4.8,45.298],[4.88,45.296],[4.988,45.344],[5.112,45.288],[5.184,45.232],[5.188,45.12],[5.244,45.06],[5.386,45.034],[5.466,45.044],[5.494,44.996],[5.464,44.792],[5.636,44.732],[5.802,44.706],[5.85,44.75],[5.92,44.752],[5.95,44.804],[6.132,44.864],[6.354,44.854],[6.358,44.942],[6.306,45.004],[6.204,45.012],[6.26,45.126],[6.138,45.214],[6.132,45.288],[6.186,45.322],[6.178,45.394],[6.122,45.438],[5.916,45.476],[5.882,45.406],[5.74,45.436],[5.714,45.506],[5.624,45.614]]]},"properties":{"code":"38"}},
{"type":"Feature","geometry":{"type":"Polygon","coordinates":[[[5.518,47.304],[5.48,47.218],[5.386,47.082],[5.284,47.048],[5.256,46.98],[5.27,46.928],[5.466,46.84],[5.368,46.826],[5.388,46.732],[5.442,46.638],[5.358,46.52],[5.416,46.474],[5.31,46.446],[5.374,46.352],[5.542,46.27],[5.65,46.34],[5.726,46.26],[5.854,46.262],[5.91,46.284],[6.064,46.416],[6.138,46.558],[6.048,46.608],[6.106,46.65],[6.07,46.69],[6.208,46.764],[6.152,46.82],[6.032,46.87],[5.956,46.948],[5.968,46.98],[5.788,47.02],[5.768,47.09],[5.824,47.142],[5.72,47.22],[5.698,47.266],[5.572,47.258],[5.518,47.304]]]},"properties":{"code":"39"}},
{"type":"Feature","geometry":{"type":"Polygon","coordinates":[[[-0.242,43.584],[-0.25,43.708],[-0.194,43.738],[-0.176,43.936],[-0.102,43.928],[-0.046,43.96],[0.03,43.9],[0.076,43.984],[0.062,44],[0.136,44.124],[-0.002,44.15],[-0.13,44.152],[-0.14,44.226],[-0.272,44.194],[-0.39,44.21],[-0.384,44.286],[-0.634,44.4],[-0.628,44.442],[-0.778,44.44],[-0.846,44.418],[-0.92,44.444],[-1.086,44.532],[-1.106,44.502],[-1.254,44.468],[-1.316,44.13],[-1.418,43.774],[-1.448,43.642],[-1.524,43.53],[-1.418,43.496],[-1.288,43.498],[-1.17,43.546],[-1.108,43.514],[-0.994,43.506],[-0.906,43.55],[-0.768,43.58],[-0.558,43.542],[-0.45,43.596],[-0.338,43.552],[-0.242,43.584]]]},"properties":{"code":"40"}},
{"type":"Feature","geometry":{"type":"Polygon","coordinates":[[[0.842,48.104],[0.802,48.072],[0.848,47.942],[0.762,47.9],[0.774,47.844],[0.622,47.748],[0.614,47.694],[0.86,47.68],[0.932,47.628],[1.034,47.608],[1.124,47.354],[1.108,47.298],[1.222,47.294],[1.326,47.186],[1.422,47.23],[1.592,47.276],[1.716,47.276],[1.84,47.22],[1.942,47.29],[1.998,47.264],[2.158,47.298],[2.104,47.392],[2.248,47.492],[2.12,47.582],[2.24,47.62],[2.206,47.676],[1.87,47.674],[1.748,47.656],[1.712,47.722],[1.548,47.77],[1.526,47.822],[1.59,47.878],[1.526,47.93],[1.52,47.982],[1.308,47.954],[1.122,48.036],[1.112,48.08],[1.026,48.088],[1.014,48.132],[0.842,48.104]]]},"properties":{"code":"41"}},
{"type":"Feature","geometry":{"type":"Polygon","coordinates":[[[3.9,46.276],[3.806,46.256],[3.796,46.112],[3.824,45.988],[3.694,45.93],[3.754,45.886],[3.732,45.774],[3.824,45.632],[3.936,45.578],[3.962,45.436],[3.898,45.358],[3.986,45.372],[4.016,45.334],[4.178,45.392],[4.366,45.338],[4.372,45.26],[4.484,45.236],[4.606,45.254],[4.598,45.29],[4.68,45.346],[4.756,45.366],[4.756,45.456],[4.662,45.486],[4.646,45.556],[4.526,45.574],[4.37,45.67],[4.392,45.754],[4.312,46.006],[4.324,46.13],[4.438,46.168],[4.388,46.22],[4.346,46.188],[4.028,46.17],[3.918,46.202],[3.9,46.276]]]},"properties":{"code":"42"}},
{"type":"Feature","geometry":{"type":"Polygon","coordinates":[[[3.898,45.358],[3.776,45.348],[3.674,45.38],[3.626,45.338],[3.564,45.396],[3.334,45.408],[3.104,45.354],[3.112,45.284],[3.212,45.282],[3.264,45.16],[3.326,45.096],[3.3,45.032],[3.362,44.972],[3.416,44.942],[3.456,44.832],[3.734,44.834],[3.862,44.744],[3.988,44.816],[4.03,44.87],[4.158,44.874],[4.31,45.03],[4.36,45.056],[4.374,45.144],[4.444,45.14],[4.484,45.236],[4.372,45.26],[4.366,45.338],[4.178,45.392],[4.016,45.334],[3.986,45.372],[3.898,45.358]]]},"properties":{"code":"43"}},
{"type":"Feature","geometry":{"type":"Polygon","coordinates":[[[-2.458,47.448],[-2.538,47.382],[-2.504,47.314],[-2.44,47.26],[-2.358,47.274],[-2.298,47.234],[-2.188,47.28],[-2.168,47.166],[-2.22,47.126],[-2.052,47.094],[-1.98,47.028],[-1.89,46.956],[-1.75,46.93],[-1.688,46.89],[-1.554,46.862],[-1.556,47.014],[-1.484,47.04],[-1.458,46.926],[-1.374,46.952],[-1.376,47.028],[-1.268,47.084],[-1.148,47.03],[-1.172,47.092],[-1.242,47.102],[-1.16,47.182],[-1.254,47.248],[-1.292,47.34],[-1.166,47.366],[-1.016,47.366],[-0.95,47.384],[-0.966,47.492],[-1.044,47.506],[-1.036,47.602],[-1.134,47.618],[-1.246,47.776],[-1.39,47.828],[-1.62,47.764],[-1.67,47.712],[-1.864,47.706],[-2.04,47.67],[-2.098,47.632],[-2.098,47.534],[-2.312,47.466],[-2.458,47.448]]]},"properties":{"code":"44"}},
{"type":"Feature","geometry":{"type":"Polygon","coordinates":[[[2.936,48.164],[2.794,48.168],[2.704,48.124],[2.64,48.138],[2.46,48.136],[2.524,48.194],[2.402,48.32],[2.18,48.312],[1.994,48.286],[1.964,48.174],[1.884,48.098],[1.756,48.064],[1.656,48.076],[1.52,47.982],[1.526,47.93],[1.59,47.878],[1.526,47.822],[1.548,47.77],[1.712,47.722],[1.748,47.656],[1.87,47.674],[2.206,47.676],[2.24,47.62],[2.372,47.586],[2.438,47.61],[2.508,47.568],[2.594,47.558],[2.684,47.482],[2.768,47.526],[2.874,47.52],[2.976,47.57],[2.936,47.6],[2.87,47.764],[3.024,47.786],[3.05,47.91],[3.128,47.97],[3.03,48.134],[2.936,48.164]]]},"properties":{"code":"45"}},
{"type":"Feature","geometry":{"type":"Polygon","coordinates":[[[1.448,45.02],[1.41,45.006],[1.44,44.874],[1.302,44.798],[1.298,44.726],[1.076,44.578],[1.01,44.546],[1.01,44.48],[1.064,44.378],[1.198,44.28],[1.306,44.262],[1.376,44.222],[1.474,44.284],[1.588,44.25],[1.738,44.326],[1.882,44.34],[1.908,44.364],[1.846,44.448],[1.988,44.552],[2.082,44.588],[2.148,44.57],[2.208,44.616],[2.146,44.72],[2.172,44.79],[2.09,44.876],[2.062,44.976],[1.914,44.978],[1.824,44.928],[1.648,45.028],[1.54,45.046],[1.448,45.02]]]},"properties":{"code":"46"}},
{"type":"Feature","geometry":{"type":"Polygon","coordinates":[[[0.298,44.762],[0.138,44.732],[0.156,44.616],[0.086,44.586],[-0.016,44.506],[-0.004,44.406],[-0.078,44.354],[-0.032,44.272],[-0.14,44.226],[-0.13,44.152],[-0.002,44.15],[0.136,44.124],[0.062,44],[0.076,43.984],[0.214,44.022],[0.314,44.006],[0.556,44.054],[0.662,44.024],[0.742,44.066],[0.818,44.144],[0.866,44.126],[0.95,44.276],[0.872,44.314],[0.952,44.362],[1.064,44.378],[1.01,44.48],[1.01,44.546],[1.076,44.578],[0.98,44.644],[0.858,44.598],[0.848,44.666],[0.798,44.702],[0.73,44.676],[0.586,44.7],[0.54,44.666],[0.356,44.654],[0.348,44.72],[0.298,44.762]]]},"properties":{"code":"47"}},
{"type":"Feature","geometry":{"type":"Polygon","coordinates":[[[3.362,44.972],[3.182,44.864],[3.104,44.884],[3.046,44.798],[2.982,44.644],[3.084,44.56],[3.068,44.502],[3.136,44.454],[3.12,44.362],[3.16,44.246],[3.212,44.196],[3.358,44.198],[3.374,44.17],[3.44,44.13],[3.632,44.122],[3.684,44.18],[3.798,44.128],[3.928,44.162],[3.974,44.254],[3.934,44.276],[3.908,44.376],[3.998,44.46],[3.948,44.572],[3.894,44.616],[3.862,44.744],[3.734,44.834],[3.456,44.832],[3.416,44.942],[3.362,44.972]]]},"properties":{"code":"48"}},
{"type":"Feature","geometry":{"type":"Polygon","coordinates":[[[-1.246,47.776],[-1.134,47.618],[-1.036,47.602],[-1.044,47.506],[-0.966,47.492],[-0.95,47.384],[-1.016,47.366],[-1.166,47.366],[-1.292,47.34],[-1.254,47.248],[-1.16,47.182],[-1.242,47.102],[-1.172,47.092],[-1.148,47.03],[-0.892,46.976],[-0.788,47.006],[-0.634,46.998],[-0.566,47.02],[-0.494,47.084],[-0.282,47.104],[-0.102,47.064],[0.02,47.176],[0.054,47.164],[0.068,47.248],[0.138,47.336],[0.22,47.502],[0.23,47.608],[0.14,47.592],[-0.004,47.648],[-0.196,47.662],[-0.234,47.708],[-0.356,47.73],[-0.382,47.76],[-0.522,47.782],[-0.61,47.736],[-0.84,47.752],[-0.926,47.788],[-0.98,47.762],[-1.238,47.81],[-1.246,47.776]]]},"properties":{"code":"49"}},
{"type":"Feature","geometry":{"type":"Polygon","coordinates":[[[-1.12,49.356],[-1.31,49.548],[-1.228,49.624],[-1.276,49.696],[-1.436,49.7],[-1.522,49.656],[-1.624,49.644],[-1.722,49.68],[-1.942,49.726],[-1.946,49.674],[-1.86,49.65],[-1.85,49.508],[-1.824,49.402],[-1.712,49.326],[-1.592,49.136],[-1.61,49.076],[-1.56,49.002],[-1.574,48.754],[-1.508,48.692],[-1.478,48.618],[-1.572,48.626],[-1.496,48.506],[-1.38,48.456],[-1.272,48.534],[-1.07,48.508],[-0.86,48.502],[-0.774,48.562],[-0.75,48.622],[-0.84,48.752],[-1.096,48.786],[-1.114,48.862],[-0.862,49.034],[-0.876,49.112],[-0.924,49.166],[-1.136,49.272],[-1.12,49.356]]]},"properties":{"code":"50"}},
{"type":"Feature","geometry":{"type":"Polygon","coordinates":[[[4.048,49.406],[4.036,49.36],[3.87,49.406],[3.802,49.358],[3.644,49.312],[3.704,49.182],[3.612,49.118],[3.664,49.038],[3.622,48.966],[3.528,48.912],[3.486,48.852],[3.396,48.76],[3.47,48.738],[3.472,48.636],[3.556,48.62],[3.634,48.54],[3.798,48.526],[3.95,48.604],[4.002,48.664],[4.178,48.708],[4.328,48.696],[4.314,48.616],[4.398,48.564],[4.532,48.53],[4.67,48.532],[4.794,48.54],[4.77,48.588],[4.912,48.688],[4.988,48.684],[4.99,48.742],[4.892,48.818],[4.936,48.922],[4.998,48.984],[4.996,49.106],[4.95,49.176],[4.95,49.236],[4.634,49.232],[4.576,49.296],[4.422,49.28],[4.19,49.398],[4.048,49.406]]]},"properties":{"code":"51"}},
{"type":"Feature","geometry":{"type":"Polygon","coordinates":[[[4.67,48.532],[4.636,48.456],[4.7,48.396],[4.824,48.344],[4.864,48.2],[4.82,48.104],[4.732,48.118],[4.704,48.02],[4.79,48.008],[4.954,47.866],[4.982,47.8],[4.954,47.702],[5.014,47.706],[5.086,47.656],[5.374,47.604],[5.406,47.674],[5.692,47.684],[5.71,47.746],[5.682,47.81],[5.816,47.848],[5.884,47.926],[5.788,47.952],[5.794,47.998],[5.65,48.106],[5.688,48.18],[5.654,48.268],[5.588,48.28],[5.498,48.356],[5.47,48.42],[5.306,48.516],[5.014,48.61],[4.988,48.684],[4.912,48.688],[4.77,48.588],[4.794,48.54],[4.67,48.532]]]},"properties":{"code":"52"}},
{"type":"Feature","geometry":{"type":"Polygon","coordinates":[[[-1.07,48.508],[-1.084,48.434],[-1.046,48.328],[-1.102,48.266],[-1.022,47.994],[-1.156,47.964],[-1.188,47.868],[-1.238,47.81],[-0.98,47.762],[-0.926,47.788],[-0.84,47.752],[-0.61,47.736],[-0.522,47.782],[-0.382,47.76],[-0.434,47.81],[-0.398,47.926],[-0.296,47.944],[-0.342,48.044],[-0.23,48.058],[-0.246,48.16],[-0.146,48.206],[-0.158,48.34],[-0.054,48.382],[-0.052,48.452],[-0.144,48.454],[-0.144,48.528],[-0.212,48.564],[-0.356,48.492],[-0.51,48.51],[-0.55,48.474],[-0.778,48.466],[-0.86,48.502],[-1.07,48.508]]]},"properties":{"code":"53"}},
{"type":"Feature","geometry":{"type":"Polygon","coordinates":[[[5.47,49.498],[5.498,49.408],[5.63,49.434],[5.692,49.416],[5.77,49.304],[5.722,49.264],[5.748,49.12],[5.818,49.112],[5.848,48.962],[5.792,48.886],[5.768,48.79],[5.72,48.732],[5.764,48.702],[5.772,48.62],[5.72,48.592],[5.766,48.496],[5.904,48.48],[5.91,48.408],[5.962,48.35],[6.118,48.354],[6.148,48.404],[6.5,48.414],[6.624,48.474],[6.66,48.426],[6.822,48.404],[6.892,48.418],[6.98,48.478],[7.124,48.514],[7.08,48.536],[6.96,48.608],[6.782,48.642],[6.506,48.748],[6.37,48.784],[6.3,48.84],[6.326,48.908],[6.272,48.934],[6.132,48.934],[6.046,49.014],[5.958,49.048],[5.998,49.108],[5.98,49.19],[6.028,49.228],[6.006,49.302],[5.912,49.408],[5.942,49.476],[5.894,49.496],[5.792,49.552],[5.66,49.554],[5.47,49.498]]]},"properties":{"code":"54"}},
{"type":"Feature","geometry":{"type":"Polygon","coordinates":[[[4.95,49.236],[4.95,49.176],[4.996,49.106],[4.998,48.984],[4.936,48.922],[4.892,48.818],[4.99,48.742],[4.988,48.684],[5.014,48.61],[5.306,48.516],[5.47,48.42],[5.616,48.44],[5.766,48.496],[5.72,48.592],[5.772,48.62],[5.764,48.702],[5.72,48.732],[5.768,48.79],[5.792,48.886],[5.848,48.962],[5.818,49.112],[5.748,49.12],[5.722,49.264],[5.77,49.304],[5.692,49.416],[5.63,49.434],[5.498,49.408],[5.47,49.498],[5.394,49.618],[5.312,49.56],[5.162,49.562],[5.062,49.508],[5.108,49.448],[5.056,49.294],[4.95,49.236]]]},"properties":{"code":"55"}},
{"type":"Feature","geometry":{"type":"Polygon","coordinates":[[[-3.564,48.186],[-3.716,48.142],[-3.64,47.986],[-3.558,47.994],[-3.422,47.968],[-3.404,47.866],[-3.522,47.85],[-3.528,47.766],[-3.452,47.696],[-3.292,47.704],[-3.124,47.57],[-2.968,47.558],[-2.848,47.618],[-2.69,47.59],[-2.816,47.486],[-2.682,47.496],[-2.616,47.546],[-2.442,47.5],[-2.458,47.448],[-2.312,47.466],[-2.098,47.534],[-2.098,47.632],[-2.114,47.77],[-2.048,47.836],[-2.078,47.92],[-2.144,47.984],[-2.24,48],[-2.288,48.134],[-2.418,48.172],[-2.514,48.132],[-2.628,48.034],[-2.65,48.1],[-3.038,48.204],[-3.13,48.2],[-3.274,48.142],[-3.344,48.17],[-3.564,48.186]]]},"properties":{"code":"56"}},
{"type":"Feature","geometry":{"type":"Polygon","coordinates":[[[7.636,49.054],[7.528,49.098],[7.436,49.182],[7.366,49.172],[7.294,49.116],[7.046,49.136],[7.01,49.188],[6.92,49.224],[6.834,49.152],[6.712,49.188],[6.668,49.28],[6.564,49.348],[6.558,49.42],[6.464,49.466],[6.394,49.464],[6.174,49.51],[6.124,49.474],[5.974,49.464],[5.894,49.496],[5.942,49.476],[5.912,49.408],[6.006,49.302],[6.028,49.228],[5.98,49.19],[5.998,49.108],[5.958,49.048],[6.046,49.014],[6.132,48.934],[6.272,48.934],[6.326,48.908],[6.3,48.84],[6.37,48.784],[6.506,48.748],[6.782,48.642],[6.96,48.608],[7.08,48.536],[7.218,48.552],[7.304,48.66],[7.248,48.682],[7.31,48.764],[7.292,48.794],[6.964,48.904],[6.99,48.96],[7.078,49.05],[7.13,49.004],[7.294,48.972],[7.326,48.944],[7.444,48.964],[7.578,48.958],[7.636,49.054]]]},"properties":{"code":"57"}},
{"type":"Feature","geometry":{"type":"Polygon","coordinates":[[[2.874,47.52],[2.932,47.44],[2.87,47.34],[2.984,47.26],[3.02,47.154],[3.024,47.062],[3.076,47.03],[3.032,46.794],[3.05,46.758],[3.204,46.678],[3.418,46.71],[3.482,46.65],[3.63,46.75],[3.736,46.752],[3.794,46.708],[4.062,46.79],[4.1,46.866],[4.036,46.922],[4.074,47.056],[4.116,47.124],[4.182,47.15],[4.21,47.156],[4.232,47.198],[4.114,47.282],[4.106,47.34],[4.002,47.31],[3.96,47.382],[3.74,47.396],[3.58,47.498],[3.39,47.51],[3.356,47.478],[3.236,47.488],[3.166,47.518],[3.102,47.588],[2.976,47.57],[2.874,47.52]]]},"properties":{"code":"58"}},
{"type":"Feature","geometry":{"type":"Polygon","coordinates":[[[2.068,51.006],[2.138,50.952],[2.212,50.812],[2.288,50.778],[2.428,50.658],[2.496,50.632],[2.758,50.618],[2.826,50.526],[3.02,50.482],[2.99,50.396],[3.15,50.262],[3.156,50.184],[3.092,50.12],[3.09,50.054],[3.172,50.012],[3.352,50.036],[3.49,50.018],[3.614,50.026],[3.716,50.07],[3.954,50.03],[4.012,49.986],[4.14,49.978],[4.136,50.02],[4.232,50.072],[4.152,50.158],[4.208,50.274],[4.024,50.358],[3.91,50.33],[3.852,50.352],[3.674,50.334],[3.67,50.438],[3.608,50.498],[3.392,50.498],[3.286,50.528],[3.264,50.676],[3.148,50.79],[2.938,50.744],[2.91,50.694],[2.79,50.726],[2.718,50.814],[2.634,50.812],[2.608,50.912],[2.63,50.944],[2.546,51.088],[2.424,51.056],[2.26,51.044],[2.068,51.006]]]},"properties":{"code":"59"}},
{"type":"Feature","geometry":{"type":"Polygon","coordinates":[[[1.784,49.758],[1.716,49.708],[1.702,49.598],[1.776,49.472],[1.714,49.41],[1.76,49.366],[1.79,49.254],[1.704,49.232],[1.756,49.174],[1.882,49.162],[2.072,49.204],[2.472,49.136],[2.59,49.08],[2.63,49.102],[2.754,49.06],[2.81,49.098],[3.066,49.088],[3.072,49.118],[3.108,49.144],[2.974,49.326],[3.074,49.348],[3.138,49.574],[3.094,49.622],[3.118,49.706],[2.996,49.708],[2.808,49.66],[2.786,49.612],[2.688,49.624],[2.582,49.6],[2.446,49.652],[2.37,49.656],[2.248,49.702],[2.06,49.698],[2.002,49.714],[1.848,49.702],[1.784,49.758]]]},"properties":{"code":"60"}},
{"type":"Feature","geometry":{"type":"Polygon","coordinates":[[[-0.84,48.752],[-0.75,48.622],[-0.774,48.562],[-0.86,48.502],[-0.778,48.466],[-0.55,48.474],[-0.51,48.51],[-0.356,48.492],[-0.212,48.564],[-0.144,48.528],[-0.144,48.454],[-0.052,48.452],[-0.054,48.382],[0.02,48.38],[0.144,48.452],[0.3,48.48],[0.354,48.46],[0.382,48.334],[0.562,48.246],[0.682,48.254],[0.738,48.19],[0.798,48.194],[0.83,48.214],[0.768,48.314],[0.944,48.4],[0.966,48.522],[0.85,48.584],[0.814,48.67],[0.732,48.786],[0.608,48.832],[0.59,48.872],[0.422,48.886],[0.412,48.95],[0.278,48.966],[0.056,48.902],[-0.152,48.82],[-0.26,48.854],[-0.406,48.87],[-0.624,48.828],[-0.84,48.752]]]},"properties":{"code":"61"}},
{"type":"Feature","geometry":{"type":"Polygon","coordinates":[[[2.068,51.006],[1.78,50.954],[1.66,50.888],[1.582,50.872],[1.606,50.792],[1.56,50.7],[1.582,50.534],[1.556,50.398],[1.642,50.352],[1.806,50.36],[2.064,50.256],[2.084,50.206],[2.452,50.226],[2.376,50.11],[2.552,50.142],[2.69,50.094],[2.776,50.116],[2.88,50.03],[3.09,50.054],[3.092,50.12],[3.156,50.184],[3.15,50.262],[2.99,50.396],[3.02,50.482],[2.826,50.526],[2.758,50.618],[2.496,50.632],[2.428,50.658],[2.288,50.778],[2.212,50.812],[2.138,50.952],[2.068,51.006]]]},"properties":{"code":"62"}},
{"type":"Feature","geometry":{"type":"Polygon","coordinates":[[[2.566,46.144],[2.548,46.112],[2.594,45.99],[2.492,45.864],[2.388,45.828],[2.492,45.738],[2.528,45.682],[2.462,45.596],[2.514,45.554],[2.508,45.478],[2.67,45.438],[2.712,45.382],[2.822,45.4],[2.92,45.366],[2.934,45.326],[3.044,45.298],[3.104,45.354],[3.334,45.408],[3.564,45.396],[3.626,45.338],[3.674,45.38],[3.776,45.348],[3.898,45.358],[3.962,45.436],[3.936,45.578],[3.824,45.632],[3.732,45.774],[3.754,45.886],[3.694,45.93],[3.632,45.962],[3.592,46.024],[3.482,46.014],[3.454,46.064],[3.362,46.052],[3.214,46.074],[3.128,46.07],[3.022,46.102],[2.912,46.178],[2.938,46.242],[2.856,46.256],[2.786,46.198],[2.674,46.172],[2.654,46.124],[2.566,46.144]]]},"properties":{"code":"63"}},
{"type":"Feature","geometry":{"type":"Polygon","coordinates":[[[-0.242,43.584],[-0.338,43.552],[-0.45,43.596],[-0.558,43.542],[-0.768,43.58],[-0.906,43.55],[-0.994,43.506],[-1.108,43.514],[-1.17,43.546],[-1.288,43.498],[-1.418,43.496],[-1.524,43.53],[-1.628,43.414],[-1.792,43.37],[-1.73,43.296],[-1.668,43.314],[-1.608,43.252],[-1.532,43.294],[-1.378,43.23],[-1.414,43.128],[-1.472,43.082],[-1.354,43.028],[-1.346,43.094],[-1.248,43.042],[-1.016,42.994],[-0.946,42.954],[-0.752,42.966],[-0.724,42.89],[-0.676,42.882],[-0.53,42.792],[-0.368,42.814],[-0.314,42.85],[-0.326,42.904],[-0.28,42.94],[-0.294,42.992],[-0.19,43.052],[-0.176,43.11],[-0.018,43.27],[-0.046,43.3],[0.01,43.422],[-0.096,43.582],[-0.242,43.584]]]},"properties":{"code":"64"}},
{"type":"Feature","geometry":{"type":"Polygon","coordinates":[[[-0.096,43.582],[0.01,43.422],[-0.046,43.3],[-0.018,43.27],[-0.176,43.11],[-0.19,43.052],[-0.294,42.992],[-0.28,42.94],[-0.326,42.904],[-0.314,42.85],[-0.178,42.786],[-0.064,42.696],[-0.01,42.684],[0.176,42.738],[0.252,42.718],[0.296,42.674],[0.358,42.72],[0.478,42.7],[0.454,42.728],[0.478,42.878],[0.554,42.86],[0.628,43],[0.56,43.068],[0.442,43.132],[0.606,43.31],[0.396,43.334],[0.278,43.386],[0.184,43.372],[0.132,43.426],[0.112,43.518],[0.054,43.518],[-0.016,43.604],[-0.096,43.582]]]},"properties":{"code":"65"}},
{"type":"Feature","geometry":{"type":"Polygon","coordinates":[[[2.166,42.664],[2.028,42.652],[1.972,42.616],[1.786,42.574],[1.726,42.504],[1.944,42.444],[2.012,42.352],[2.128,42.412],[2.256,42.438],[2.412,42.392],[2.482,42.34],[2.578,42.358],[2.716,42.422],[2.8,42.418],[2.84,42.46],[2.948,42.48],[3.086,42.426],[3.174,42.436],[3.138,42.516],[3.058,42.536],[3.036,42.642],[3.044,42.838],[2.866,42.918],[2.79,42.896],[2.738,42.836],[2.502,42.85],[2.328,42.838],[2.358,42.73],[2.166,42.664]]]},"properties":{"code":"66"}},
{"type":"Feature","geometry":{"type":"Polygon","coordinates":[[[7.636,49.054],[7.578,48.958],[7.444,48.964],[7.326,48.944],[7.294,48.972],[7.13,49.004],[7.078,49.05],[6.99,48.96],[6.964,48.904],[7.292,48.794],[7.31,48.764],[7.248,48.682],[7.304,48.66],[7.218,48.552],[7.08,48.536],[7.124,48.514],[7.078,48.352],[7.198,48.31],[7.276,48.306],[7.326,48.244],[7.476,48.204],[7.47,48.16],[7.578,48.12],[7.746,48.336],[7.736,48.404],[7.808,48.522],[7.804,48.592],[8.004,48.758],[8.106,48.824],[8.196,48.956],[7.938,49.058],[7.866,49.034],[7.636,49.054]]]},"properties":{"code":"67"}},
{"type":"Feature","geometry":{"type":"Polygon","coordinates":[[[7.198,48.31],[7.058,48.138],[7.076,48.108],[6.96,48],[6.846,47.822],[7.034,47.726],[7.006,47.602],[7.07,47.6],[7.13,47.504],[7.17,47.444],[7.254,47.424],[7.386,47.432],[7.51,47.496],[7.506,47.544],[7.584,47.576],[7.514,47.702],[7.556,47.88],[7.622,47.972],[7.568,48.034],[7.578,48.12],[7.47,48.16],[7.476,48.204],[7.326,48.244],[7.276,48.306],[7.198,48.31]]]},"properties":{"code":"68"}},
{"type":"Feature","geometry":{"type":"Polygon","coordinates":[[[4.388,46.22],[4.438,46.168],[4.324,46.13],[4.312,46.006],[4.392,45.754],[4.37,45.67],[4.526,45.574],[4.646,45.556],[4.662,45.486],[4.756,45.456],[4.868,45.524],[4.814,45.57],[5.036,45.638],[5.132,45.708],[5.094,45.74],[5.102,45.814],[4.924,45.804],[4.88,45.898],[4.754,45.972],[4.748,46.092],[4.78,46.176],[4.728,46.18],[4.68,46.306],[4.504,46.268],[4.428,46.302],[4.388,46.22]]]},"properties":{"code":"69"}},
{"type":"Feature","geometry":{"type":"Polygon","coordinates":[[[5.884,47.926],[5.816,47.848],[5.682,47.81],[5.71,47.746],[5.692,47.684],[5.406,47.674],[5.374,47.604],[5.478,47.608],[5.498,47.554],[5.4,47.5],[5.434,47.394],[5.494,47.376],[5.518,47.304],[5.572,47.258],[5.698,47.266],[5.838,47.3],[5.926,47.344],[6.08,47.354],[6.2,47.43],[6.256,47.424],[6.336,47.506],[6.412,47.522],[6.574,47.496],[6.67,47.558],[6.808,47.562],[6.758,47.748],[6.824,47.814],[6.782,47.852],[6.65,47.902],[6.602,47.944],[6.478,47.886],[6.366,47.962],[6.238,47.932],[6.132,48.024],[5.94,47.98],[5.884,47.926]]]},"properties":{"code":"70"}},
{"type":"Feature","geometry":{"type":"Polygon","coordinates":[[[4.116,47.124],[4.074,47.056],[4.036,46.922],[4.1,46.866],[4.062,46.79],[3.794,46.708],[3.736,46.752],[3.63,46.75],[3.638,46.708],[3.732,46.604],[3.742,46.54],[3.958,46.49],[3.998,46.464],[3.984,46.318],[3.9,46.276],[3.918,46.202],[4.028,46.17],[4.346,46.188],[4.388,46.22],[4.428,46.302],[4.504,46.268],[4.68,46.306],[4.728,46.18],[4.78,46.176],[4.936,46.514],[5.056,46.484],[5.172,46.514],[5.226,46.468],[5.31,46.446],[5.416,46.474],[5.358,46.52],[5.442,46.638],[5.388,46.732],[5.368,46.826],[5.466,46.84],[5.27,46.928],[5.256,46.98],[5.108,46.958],[5.05,46.982],[4.894,46.966],[4.78,46.918],[4.59,46.956],[4.556,47],[4.4,47.054],[4.342,47.102],[4.21,47.156],[4.182,47.15],[4.116,47.124]]]},"properties":{"code":"71"}},
{"type":"Feature","geometry":{"type":"Polygon","coordinates":[[[-0.054,48.382],[-0.158,48.34],[-0.146,48.206],[-0.246,48.16],[-0.23,48.058],[-0.342,48.044],[-0.296,47.944],[-0.398,47.926],[-0.434,47.81],[-0.382,47.76],[-0.356,47.73],[-0.234,47.708],[-0.196,47.662],[-0.004,47.648],[0.14,47.592],[0.23,47.608],[0.378,47.568],[0.456,47.638],[0.614,47.694],[0.622,47.748],[0.774,47.844],[0.762,47.9],[0.848,47.942],[0.802,48.072],[0.842,48.104],[0.798,48.194],[0.738,48.19],[0.682,48.254],[0.562,48.246],[0.382,48.334],[0.354,48.46],[0.3,48.48],[0.144,48.452],[0.02,48.38],[-0.054,48.382]]]},"properties":{"code":"72"}},
{"type":"Feature","geometry":{"type":"Polygon","coordinates":[[[6.802,45.778],[6.69,45.77],[6.594,45.794],[6.536,45.862],[6.47,45.884],[6.424,45.802],[6.328,45.692],[6.19,45.696],[6.166,45.756],[6.042,45.74],[5.962,45.812],[5.882,45.826],[5.832,45.938],[5.784,45.744],[5.702,45.702],[5.69,45.648],[5.624,45.614],[5.714,45.506],[5.74,45.436],[5.882,45.406],[5.916,45.476],[6.122,45.438],[6.178,45.394],[6.186,45.322],[6.132,45.288],[6.138,45.214],[6.26,45.126],[6.338,45.12],[6.396,45.062],[6.576,45.124],[6.63,45.11],[6.768,45.16],[6.848,45.128],[6.948,45.17],[6.966,45.208],[7.08,45.224],[7.138,45.256],[7.116,45.33],[7.186,45.404],[7.1,45.47],[7,45.504],[6.988,45.624],[6.846,45.69],[6.802,45.778]]]},"properties":{"code":"73"}},
{"type":"Feature","geometry":{"type":"Polygon","coordinates":[[[6.802,45.778],[6.818,45.836],[7,45.874],[7.046,45.922],[7.01,45.998],[6.95,46.052],[6.814,46.13],[6.804,46.204],[6.864,46.282],[6.786,46.332],[6.794,46.392],[6.724,46.408],[6.514,46.404],[6.386,46.34],[6.276,46.35],[6.238,46.282],[6.294,46.224],[6.126,46.14],[5.956,46.132],[5.832,46.106],[5.81,45.99],[5.832,45.938],[5.882,45.826],[5.962,45.812],[6.042,45.74],[6.166,45.756],[6.19,45.696],[6.328,45.692],[6.424,45.802],[6.47,45.884],[6.536,45.862],[6.594,45.794],[6.69,45.77],[6.802,45.778]]]},"properties":{"code":"74"}},
{"type":"Feature","geometry":{"type":"Polygon","coordinates":[[[2.332,48.818],[2.416,48.85],[2.32,48.9],[2.224,48.854],[2.332,48.818]]]},"properties":{"code":"75"}},
{"type":"Feature","geometry":{"type":"Polygon","coordinates":[[[1.382,50.066],[1.206,49.974],[1.108,49.938],[0.79,49.876],[0.572,49.85],[0.324,49.742],[0.206,49.714],[0.068,49.524],[0.122,49.464],[0.338,49.44],[0.524,49.478],[0.664,49.402],[0.798,49.418],[0.918,49.386],[0.928,49.314],[0.992,49.254],[1.16,49.342],[1.272,49.346],[1.31,49.428],[1.4,49.456],[1.576,49.44],[1.714,49.41],[1.776,49.472],[1.702,49.598],[1.716,49.708],[1.784,49.758],[1.678,49.918],[1.594,49.948],[1.518,50.01],[1.382,50.066]]]},"properties":{"code":"76"}},
{"type":"Feature","geometry":{"type":"Polygon","coordinates":[[[2.572,48.692],[2.5,48.542],[2.5,48.44],[2.402,48.32],[2.524,48.194],[2.46,48.136],[2.64,48.138],[2.704,48.124],[2.794,48.168],[2.936,48.164],[3.044,48.272],[3.046,48.358],[3.14,48.372],[3.366,48.372],[3.414,48.39],[3.388,48.478],[3.414,48.534],[3.556,48.62],[3.472,48.636],[3.47,48.738],[3.396,48.76],[3.486,48.852],[3.33,48.908],[3.304,48.948],[3.162,49.024],[3.166,49.1],[3.072,49.118],[3.066,49.088],[2.81,49.098],[2.754,49.06],[2.63,49.102],[2.59,49.08],[2.554,49.01],[2.602,48.93],[2.562,48.888],[2.592,48.808],[2.572,48.692]]]},"properties":{"code":"77"}},
{"type":"Feature","geometry":{"type":"Polygon","coordinates":[[[1.608,49.078],[1.446,49.046],[1.502,48.942],[1.538,48.922],[1.626,48.748],[1.576,48.702],[1.702,48.586],[1.788,48.554],[1.786,48.49],[1.872,48.44],[1.922,48.458],[1.938,48.562],[2.018,48.558],[2.028,48.658],[2.098,48.736],[2.226,48.776],[2.152,48.818],[2.2,48.908],[2.206,48.95],[2.128,49.01],[2.024,48.998],[1.828,49.076],[1.724,49.044],[1.608,49.078]]]},"properties":{"code":"78"}},
{"type":"Feature","geometry":{"type":"Polygon","coordinates":[[[-0.892,46.976],[-0.828,46.928],[-0.728,46.766],[-0.656,46.7],[-0.616,46.622],[-0.608,46.454],[-0.538,46.386],[-0.648,46.316],[-0.75,46.304],[-0.752,46.246],[-0.69,46.22],[-0.628,46.142],[-0.512,46.11],[-0.28,46.078],[-0.102,45.97],[-0.044,45.99],[-0.032,46.056],[0.078,46.094],[0.198,46.096],[0.112,46.208],[0.178,46.328],[0.078,46.304],[0.022,46.334],[-0.032,46.524],[0.008,46.548],[-0.03,46.67],[0.038,46.732],[-0.044,46.822],[-0.01,46.908],[-0.088,46.996],[-0.102,47.064],[-0.282,47.104],[-0.494,47.084],[-0.566,47.02],[-0.634,46.998],[-0.788,47.006],[-0.892,46.976]]]},"properties":{"code":"79"}},
{"type":"Feature","geometry":{"type":"Polygon","coordinates":[[[1.382,50.066],[1.518,50.01],[1.594,49.948],[1.678,49.918],[1.784,49.758],[1.848,49.702],[2.002,49.714],[2.06,49.698],[2.248,49.702],[2.37,49.656],[2.446,49.652],[2.582,49.6],[2.688,49.624],[2.786,49.612],[2.808,49.66],[2.996,49.708],[3.118,49.706],[3.08,49.866],[3.204,49.984],[3.172,50.012],[3.09,50.054],[2.88,50.03],[2.776,50.116],[2.69,50.094],[2.552,50.142],[2.376,50.11],[2.452,50.226],[2.084,50.206],[2.064,50.256],[1.806,50.36],[1.642,50.352],[1.55,50.35],[1.538,50.282],[1.592,50.256],[1.382,50.066]]]},"properties":{"code":"80"}},
{"type":"Feature","geometry":{"type":"Polygon","coordinates":[[[1.99,44.15],[1.868,44.144],[1.764,44.108],[1.658,44.116],[1.704,44.044],[1.556,43.918],[1.59,43.814],[1.65,43.794],[1.73,43.658],[1.688,43.628],[1.84,43.578],[1.884,43.518],[2.008,43.48],[2.03,43.436],[2.074,43.394],[2.244,43.448],[2.402,43.418],[2.428,43.436],[2.566,43.422],[2.654,43.466],[2.614,43.6],[2.658,43.65],[2.754,43.614],[2.908,43.654],[2.936,43.694],[2.912,43.74],[2.814,43.762],[2.738,43.73],[2.67,43.75],[2.562,43.844],[2.578,43.88],[2.46,44.052],[2.284,44.146],[2.106,44.194],[1.99,44.15]]]},"properties":{"code":"81"}},
{"type":"Feature","geometry":{"type":"Polygon","coordinates":[[[1.064,44.378],[0.952,44.362],[0.872,44.314],[0.95,44.276],[0.866,44.126],[0.818,44.144],[0.742,44.066],[0.828,43.996],[0.76,43.944],[0.864,43.924],[0.954,43.788],[1.11,43.796],[1.158,43.818],[1.222,43.772],[1.36,43.818],[1.348,43.87],[1.492,43.888],[1.556,43.918],[1.704,44.044],[1.658,44.116],[1.764,44.108],[1.868,44.144],[1.99,44.15],[1.902,44.192],[1.882,44.34],[1.738,44.326],[1.588,44.25],[1.474,44.284],[1.376,44.222],[1.306,44.262],[1.198,44.28],[1.064,44.378]]]},"properties":{"code":"82"}},
{"type":"Feature","geometry":{"type":"Polygon","coordinates":[[[5.754,43.724],[5.798,43.66],[5.702,43.64],[5.686,43.34],[5.76,43.268],[5.684,43.236],[5.672,43.18],[5.78,43.13],[5.86,43.048],[5.9,43.114],[6.052,43.078],[6.154,43.08],[6.262,43.122],[6.496,43.152],[6.562,43.19],[6.64,43.176],[6.734,43.406],[6.852,43.41],[6.934,43.48],[6.884,43.504],[6.908,43.6],[6.802,43.626],[6.758,43.734],[6.636,43.788],[6.524,43.806],[6.424,43.79],[6.384,43.734],[6.21,43.796],[6.036,43.694],[5.94,43.728],[5.758,43.73],[5.754,43.724]]]},"properties":{"code":"83"}},
{"type":"Feature","geometry":{"type":"MultiPolygon","coordinates":[[[[4.892,44.364],[4.89,44.306],[4.98,44.298],[5.072,44.378],[4.988,44.424],[4.892,44.364]]],[[[4.65,44.27],[4.722,44.188],[4.708,44.104],[4.844,44.01],[4.74,43.924],[4.854,43.912],[4.976,43.866],[5.05,43.788],[5.188,43.736],[5.318,43.736],[5.438,43.682],[5.606,43.658],[5.754,43.724],[5.758,43.73],[5.654,43.826],[5.574,43.83],[5.598,43.902],[5.508,43.958],[5.544,44.026],[5.498,44.116],[5.382,44.16],[5.384,44.202],[5.252,44.232],[5.15,44.236],[5.06,44.308],[4.814,44.232],[4.78,44.32],[4.65,44.33],[4.65,44.27]]]]},"properties":{"code":"84"}},
{"type":"Feature","geometry":{"type":"Polygon","coordinates":[[[-1.148,47.03],[-1.268,47.084],[-1.376,47.028],[-1.374,46.952],[-1.458,46.926],[-1.484,47.04],[-1.556,47.014],[-1.554,46.862],[-1.688,46.89],[-1.75,46.93],[-1.89,46.956],[-1.98,47.028],[-2.058,46.95],[-2.156,46.89],[-2.142,46.82],[-1.942,46.692],[-1.858,46.61],[-1.812,46.494],[-1.654,46.422],[-1.516,46.404],[-1.466,46.342],[-1.358,46.348],[-1.222,46.274],[-1.13,46.31],[-1.014,46.356],[-0.918,46.312],[-0.808,46.34],[-0.75,46.304],[-0.648,46.316],[-0.538,46.386],[-0.608,46.454],[-0.616,46.622],[-0.656,46.7],[-0.728,46.766],[-0.828,46.928],[-0.892,46.976],[-1.148,47.03]]]},"properties":{"code":"85"}},
{"type":"Feature","geometry":{"type":"Polygon","coordinates":[[[-0.102,47.064],[-0.088,46.996],[-0.01,46.908],[-0.044,46.822],[0.038,46.732],[-0.03,46.67],[0.008,46.548],[-0.032,46.524],[0.022,46.334],[0.078,46.304],[0.178,46.328],[0.112,46.208],[0.198,46.096],[0.272,46.062],[0.47,46.062],[0.544,46.088],[0.688,46.098],[0.744,46.14],[0.824,46.128],[0.802,46.2],[0.902,46.284],[0.988,46.28],[1.066,46.362],[1.178,46.384],[1.146,46.506],[1.022,46.536],[0.894,46.628],[0.914,46.726],[0.868,46.748],[0.81,46.828],[0.704,46.904],[0.692,46.974],[0.486,46.954],[0.438,46.93],[0.312,46.938],[0.298,47.054],[0.076,47.124],[0.054,47.164],[0.02,47.176],[-0.102,47.064]]]},"properties":{"code":"86"}},
{"type":"Feature","geometry":{"type":"Polygon","coordinates":[[[0.824,46.128],[0.814,46.054],[0.926,46.012],[0.944,45.97],[0.828,45.882],[0.8,45.836],[0.708,45.796],[0.63,45.714],[0.776,45.668],[0.752,45.616],[0.842,45.582],[0.94,45.612],[1.024,45.61],[1.08,45.536],[1.168,45.524],[1.16,45.478],[1.254,45.444],[1.35,45.47],[1.452,45.554],[1.582,45.554],[1.708,45.642],[1.898,45.698],[1.88,45.798],[1.776,45.832],[1.676,45.836],[1.63,45.932],[1.566,45.964],[1.446,46.18],[1.372,46.216],[1.446,46.334],[1.416,46.348],[1.356,46.4],[1.304,46.37],[1.178,46.384],[1.066,46.362],[0.988,46.28],[0.902,46.284],[0.802,46.2],[0.824,46.128]]]},"properties":{"code":"87"}},
{"type":"Feature","geometry":{"type":"Polygon","coordinates":[[[5.47,48.42],[5.498,48.356],[5.588,48.28],[5.654,48.268],[5.688,48.18],[5.65,48.106],[5.794,47.998],[5.788,47.952],[5.884,47.926],[5.94,47.98],[6.132,48.024],[6.238,47.932],[6.366,47.962],[6.478,47.886],[6.602,47.944],[6.65,47.902],[6.782,47.852],[6.824,47.814],[6.846,47.822],[6.96,48],[7.076,48.108],[7.058,48.138],[7.198,48.31],[7.078,48.352],[7.124,48.514],[6.98,48.478],[6.892,48.418],[6.822,48.404],[6.66,48.426],[6.624,48.474],[6.5,48.414],[6.148,48.404],[6.118,48.354],[5.962,48.35],[5.91,48.408],[5.904,48.48],[5.766,48.496],[5.616,48.44],[5.47,48.42]]]},"properties":{"code":"88"}},
{"type":"Feature","geometry":{"type":"Polygon","coordinates":[[[2.936,48.164],[3.03,48.134],[3.128,47.97],[3.05,47.91],[3.024,47.786],[2.87,47.764],[2.936,47.6],[2.976,47.57],[3.102,47.588],[3.166,47.518],[3.236,47.488],[3.356,47.478],[3.39,47.51],[3.58,47.498],[3.74,47.396],[3.96,47.382],[4.002,47.31],[4.106,47.34],[4.066,47.402],[4.124,47.45],[4.116,47.512],[4.172,47.55],[4.256,47.706],[4.332,47.756],[4.32,47.836],[4.26,47.876],[4.294,47.926],[4.166,47.96],[4.11,47.926],[3.926,47.934],[3.902,47.996],[3.824,48.042],[3.78,48.12],[3.668,48.14],[3.616,48.272],[3.498,48.37],[3.414,48.39],[3.366,48.372],[3.14,48.372],[3.046,48.358],[3.044,48.272],[2.936,48.164]]]},"properties":{"code":"89"}},
{"type":"Feature","geometry":{"type":"Polygon","coordinates":[[[6.824,47.814],[6.758,47.748],[6.808,47.562],[6.902,47.55],[6.94,47.434],[6.988,47.494],[7.13,47.504],[7.07,47.6],[7.006,47.602],[7.034,47.726],[6.846,47.822],[6.824,47.814]]]},"properties":{"code":"90"}},
{"type":"Feature","geometry":{"type":"Polygon","coordinates":[[[2.226,48.776],[2.098,48.736],[2.028,48.658],[2.018,48.558],[1.938,48.562],[1.922,48.458],[1.986,48.362],[1.994,48.286],[2.18,48.312],[2.402,48.32],[2.5,48.44],[2.5,48.542],[2.572,48.692],[2.504,48.736],[2.37,48.72],[2.32,48.748],[2.226,48.776]]]},"properties":{"code":"91"}},
{"type":"Feature","geometry":{"type":"Polygon","coordinates":[[[2.29,48.95],[2.2,48.908],[2.152,48.818],[2.226,48.776],[2.32,48.748],[2.332,48.818],[2.224,48.854],[2.32,48.9],[2.29,48.95]]]},"properties":{"code":"92"}},
{"type":"Feature","geometry":{"type":"Polygon","coordinates":[[[2.554,49.01],[2.46,48.956],[2.362,48.974],[2.29,48.95],[2.32,48.9],[2.416,48.85],[2.504,48.858],[2.592,48.808],[2.562,48.888],[2.602,48.93],[2.554,49.01]]]},"properties":{"code":"93"}},
{"type":"Feature","geometry":{"type":"Polygon","coordinates":[[[2.332,48.818],[2.32,48.748],[2.37,48.72],[2.504,48.736],[2.572,48.692],[2.592,48.808],[2.504,48.858],[2.416,48.85],[2.332,48.818]]]},"properties":{"code":"94"}},
{"type":"Feature","geometry":{"type":"Polygon","coordinates":[[[2.59,49.08],[2.472,49.136],[2.072,49.204],[1.882,49.162],[1.756,49.174],[1.704,49.232],[1.608,49.078],[1.724,49.044],[1.828,49.076],[2.024,48.998],[2.128,49.01],[2.206,48.95],[2.2,48.908],[2.29,48.95],[2.362,48.974],[2.46,48.956],[2.554,49.01],[2.59,49.08]]]},"properties":{"code":"95"}},
{"type":"Feature","geometry":{"type":"Polygon","coordinates":[[[55.254,-21.11],[55.28,-21.202],[55.34,-21.282],[55.46,-21.342],[55.61,-21.388],[55.756,-21.362],[55.808,-21.336],[55.802,-21.26],[55.834,-21.18],[55.706,-21.026],[55.666,-20.926],[55.592,-20.896],[55.452,-20.872],[55.396,-20.882],[55.326,-20.93],[55.276,-21.002],[55.218,-21.036],[55.254,-21.11]]]},"properties":{"code":"974"}}
]}